{"type": "FeatureCollection", "features": [ {"type": "Feature", "properties": {"norad_id": 57401, "name": "TIANMU-1 09", "group": "weather", "lat": -50.223997434993905, "lon": -163.0656421244807, "alt_km": 491.4650644093472, "timestamp": "2025-12-02T08:59:32.362630+00:00", "meta": {"OBJECT_NAME": "TIANMU-1 09", "OBJECT_ID": "2023-101C", "EPOCH": "2025-12-01T20:58:59.101824", "MEAN_MOTION": 15.27829153, "ECCENTRICITY": 0.0006696, "INCLINATION": 97.2845, "RA_OF_ASC_NODE": 25.2846, "ARG_OF_PERICENTER": 113.5, "MEAN_ANOMALY": 246.6944, "EPHEMERIS_TYPE": 0, "CLASSIFICATION_TYPE": "U", "NORAD_CAT_ID": 57401, "ELEMENT_SET_NO": 999, "REV_AT_EPOCH": 13149, "BSTAR": 0.00030891, "MEAN_MOTION_DOT": 8.328e-05, "MEAN_MOTION_DDOT": 0}, "tle": {"line1": "1 57401U 23101C   25335.87429516  .00008328  00000+0  30891-3 0  9998", "line2": "2 57401  97.2845  25.2846 0006696 113.5000 246.6944 15.27829153131494"}}, "geometry": {"type": "Point", "coordinates": [-163.0656421244807, -50.223997434993905]}}, {"type": "Feature", "properties": {"norad_id": 57402, "name": "TIANMU-1 10", "group": "weather", "lat": 42.29872773738614, "lon": 19.920989033385133, "alt_km": 476.9559765781223, "timestamp": "2025-12-02T08:59:32.362640+00:00", "meta": {"OBJECT_NAME": "TIANMU-1 10", "OBJECT_ID": "2023-101D", "EPOCH": "2025-12-01T20:13:51.309408", "MEAN_MOTION": 15.27819033, "ECCENTRICITY": 0.0008431, "INCLINATION": 97.2927, "RA_OF_ASC_NODE": 26.0923, "ARG_OF_PERICENTER": 114.8462, "MEAN_ANOMALY": 245.3655, "EPHEMERIS_TYPE": 0, "CLASSIFICATION_TYPE": "U", "NORAD_CAT_ID": 57402, "ELEMENT_SET_NO": 999, "REV_AT_EPOCH": 13148, "BSTAR": 0.00031547, "MEAN_MOTION_DOT": 8.508e-05, "MEAN_MOTION_DDOT": 0}, "tle": {"line1": "1 57402U 23101D   25335.84295497  .00008508  00000+0  31547-3 0  9994", "line2": "2 57402  97.2927  26.0923 0008431 114.8462 245.3655 15.27819033131486"}}, "geometry": {"type": "Point", "coordinates": [19.920989033385133, 42.29872773738614]}}, {"type": "Feature", "properties": {"norad_id": 57490, "name": "FENGYUN 3F", "group": "weather", "lat": 7.769866724308156, "lon": 43.636199581137376, "alt_km": 827.4473408701851, "timestamp": "2025-12-02T08:59:32.362653+00:00", "meta": {"OBJECT_NAME": "FENGYUN 3F", "OBJECT_ID": "2023-111A", "EPOCH": "2025-12-02T03:52:54.221952", "MEAN_MOTION": 14.198889, "ECCENTRICITY": 7.08e-05, "INCLINATION": 98.7097, "RA_OF_ASC_NODE": 44.6252, "ARG_OF_PERICENTER": 84.0509, "MEAN_ANOMALY": 276.0748, "EPHEMERIS_TYPE": 0, "CLASSIFICATION_TYPE": "U", "NORAD_CAT_ID": 57490, "ELEMENT_SET_NO": 999, "REV_AT_EPOCH": 12090, "BSTAR": 7.0161e-05, "MEAN_MOTION_DOT": 1.05e-06, "MEAN_MOTION_DDOT": 0}, "tle": {"line1": "1 57490U 23111A   25336.16173868  .00000105  00000+0  70161-4 0  9996", "line2": "2 57490  98.7097  44.6252 0000708  84.0509 276.0748 14.19888900120905"}}, "geometry": {"type": "Point", "coordinates": [43.636199581137376, 7.769866724308156]}}, {"type": "Feature", "properties": {"norad_id": 58584, "name": "ARKTIKA-M 2", "group": "weather", "lat": 17.563266963319315, "lon": -174.7823741022931, "alt_km": 12437.072706306179, "timestamp": "2025-12-02T08:59:32.362664+00:00", "meta": {"OBJECT_NAME": "ARKTIKA-M 2", "OBJECT_ID": "2023-198A", "EPOCH": "2025-12-01T08:43:04.634112", "MEAN_MOTION": 2.00605427, "ECCENTRICITY": 0.6864029, "INCLINATION": 63.2218, "RA_OF_ASC_NODE": 176.1298, "ARG_OF_PERICENTER": 268.1507, "MEAN_ANOMALY": 18.8441, "EPHEMERIS_TYPE": 0, "CLASSIFICATION_TYPE": "U", "NORAD_CAT_ID": 58584, "ELEMENT_SET_NO": 999, "REV_AT_EPOCH": 1435, "BSTAR": 0, "MEAN_MOTION_DOT": 2.37e-06, "MEAN_MOTION_DDOT": 0}, "tle": {"line1": "1 58584U 23198A   25335.36324808  .00000237  00000+0  00000+0 0  9995", "line2": "2 58584  63.2218 176.1298 6864029 268.1507  18.8441  2.00605427 14357"}}, "geometry": {"type": "Point", "coordinates": [-174.7823741022931, 17.563266963319315]}}, {"type": "Feature", "properties": {"norad_id": 58645, "name": "TIANMU-1 11", "group": "weather", "lat": -9.38315640516538, "lon": -2.5937866361722985, "alt_km": 490.62369312807186, "timestamp": "2025-12-02T08:59:32.362676+00:00", "meta": {"OBJECT_NAME": "TIANMU-1 11", "OBJECT_ID": "2023-205A", "EPOCH": "2025-12-01T20:25:49.431648", "MEAN_MOTION": 15.24389586, "ECCENTRICITY": 0.0009033, "INCLINATION": 97.3619, "RA_OF_ASC_NODE": 355.6678, "ARG_OF_PERICENTER": 352.7112, "MEAN_ANOMALY": 7.3993, "EPHEMERIS_TYPE": 0, "CLASSIFICATION_TYPE": "U", "NORAD_CAT_ID": 58645, "ELEMENT_SET_NO": 999, "REV_AT_EPOCH": 10743, "BSTAR": 0.00025582, "MEAN_MOTION_DOT": 6.204e-05, "MEAN_MOTION_DDOT": 0}, "tle": {"line1": "1 58645U 23205A   25335.85126657  .00006204  00000+0  25582-3 0  9994", "line2": "2 58645  97.3619 355.6678 0009033 352.7112   7.3993 15.24389586107438"}}, "geometry": {"type": "Point", "coordinates": [-2.5937866361722985, -9.38315640516538]}}, {"type": "Feature", "properties": {"norad_id": 58646, "name": "TIANMU-1 12", "group": "weather", "lat": -26.459660199220945, "lon": 172.30206947843544, "alt_km": 501.68038924372104, "timestamp": "2025-12-02T08:59:32.362687+00:00", "meta": {"OBJECT_NAME": "TIANMU-1 12", "OBJECT_ID": "2023-205B", "EPOCH": "2025-12-01T21:03:35.665632", "MEAN_MOTION": 15.24302022, "ECCENTRICITY": 0.0006813, "INCLINATION": 97.3606, "RA_OF_ASC_NODE": 355.5026, "ARG_OF_PERICENTER": 338.59, "MEAN_ANOMALY": 21.5052, "EPHEMERIS_TYPE": 0, "CLASSIFICATION_TYPE": "U", "NORAD_CAT_ID": 58646, "ELEMENT_SET_NO": 999, "REV_AT_EPOCH": 10742, "BSTAR": 0.0003005, "MEAN_MOTION_DOT": 7.279e-05, "MEAN_MOTION_DDOT": 0}, "tle": {"line1": "1 58646U 23205B   25335.87749613  .00007279  00000+0  30050-3 0  9999", "line2": "2 58646  97.3606 355.5026 0006813 338.5900  21.5052 15.24302022107424"}}, "geometry": {"type": "Point", "coordinates": [172.30206947843544, -26.459660199220945]}}, {"type": "Feature", "properties": {"norad_id": 58647, "name": "TIANMU-1 13", "group": "weather", "lat": 21.53257268005738, "lon": -6.7372345934449305, "alt_km": 491.0703418236326, "timestamp": "2025-12-02T08:59:32.362697+00:00", "meta": {"OBJECT_NAME": "TIANMU-1 13", "OBJECT_ID": "2023-205C", "EPOCH": "2025-12-01T20:17:36.448800", "MEAN_MOTION": 15.24308305, "ECCENTRICITY": 0.0006508, "INCLINATION": 97.3634, "RA_OF_ASC_NODE": 355.6677, "ARG_OF_PERICENTER": 315.893, "MEAN_ANOMALY": 44.1787, "EPHEMERIS_TYPE": 0, "CLASSIFICATION_TYPE": "U", "NORAD_CAT_ID": 58647, "ELEMENT_SET_NO": 999, "REV_AT_EPOCH": 10741, "BSTAR": 0.00027821, "MEAN_MOTION_DOT": 6.734e-05, "MEAN_MOTION_DDOT": 0}, "tle": {"line1": "1 58647U 23205C   25335.84556075  .00006734  00000+0  27821-3 0  9992", "line2": "2 58647  97.3634 355.6677 0006508 315.8930  44.1787 15.24308305107416"}}, "geometry": {"type": "Point", "coordinates": [-6.7372345934449305, 21.53257268005738]}}, {"type": "Feature", "properties": {"norad_id": 58648, "name": "TIANMU-1 14", "group": "weather", "lat": 65.44997230052809, "lon": -168.02463046257012, "alt_km": 491.16139380135064, "timestamp": "2025-12-02T08:59:32.362707+00:00", "meta": {"OBJECT_NAME": "TIANMU-1 14", "OBJECT_ID": "2023-205D", "EPOCH": "2025-12-02T05:20:43.075392", "MEAN_MOTION": 15.2429999, "ECCENTRICITY": 0.0007404, "INCLINATION": 97.3564, "RA_OF_ASC_NODE": 355.3967, "ARG_OF_PERICENTER": 318.3316, "MEAN_ANOMALY": 41.7357, "EPHEMERIS_TYPE": 0, "CLASSIFICATION_TYPE": "U", "NORAD_CAT_ID": 58648, "ELEMENT_SET_NO": 999, "REV_AT_EPOCH": 10747, "BSTAR": 0.000325, "MEAN_MOTION_DOT": 7.879e-05, "MEAN_MOTION_DDOT": 0}, "tle": {"line1": "1 58648U 23205D   25336.22272078  .00007879  00000+0  32500-3 0  9995", "line2": "2 58648  97.3564 355.3967 0007404 318.3316  41.7357 15.24299990107471"}}, "geometry": {"type": "Point", "coordinates": [-168.02463046257012, 65.44997230052809]}}, {"type": "Feature", "properties": {"norad_id": 58660, "name": "TIANMU-1 19", "group": "weather", "lat": -64.46872584474794, "lon": -108.4408452839271, "alt_km": 488.69600777580126, "timestamp": "2025-12-02T08:59:32.362717+00:00", "meta": {"OBJECT_NAME": "TIANMU-1 19", "OBJECT_ID": "2023-208A", "EPOCH": "2025-12-02T04:46:34.628160", "MEAN_MOTION": 15.27544067, "ECCENTRICITY": 0.0004177, "INCLINATION": 97.4389, "RA_OF_ASC_NODE": 87.2595, "ARG_OF_PERICENTER": 299.9305, "MEAN_ANOMALY": 60.1519, "EPHEMERIS_TYPE": 0, "CLASSIFICATION_TYPE": "U", "NORAD_CAT_ID": 58660, "ELEMENT_SET_NO": 999, "REV_AT_EPOCH": 10721, "BSTAR": 0.00044957, "MEAN_MOTION_DOT": 0.00012047, "MEAN_MOTION_DDOT": 0}, "tle": {"line1": "1 58660U 23208A   25336.19901190  .00012047  00000+0  44957-3 0  9994", "line2": "2 58660  97.4389  87.2595 0004177 299.9305  60.1519 15.27544067107213"}}, "geometry": {"type": "Point", "coordinates": [-108.4408452839271, -64.46872584474794]}}, {"type": "Feature", "properties": {"norad_id": 58661, "name": "TIANMU-1 20", "group": "weather", "lat": -80.88476251219276, "lon": 142.32621697149952, "alt_km": 483.20615673598695, "timestamp": "2025-12-02T08:59:32.362727+00:00", "meta": {"OBJECT_NAME": "TIANMU-1 20", "OBJECT_ID": "2023-208B", "EPOCH": "2025-12-02T04:38:57.319872", "MEAN_MOTION": 15.28737613, "ECCENTRICITY": 0.0006533, "INCLINATION": 97.4326, "RA_OF_ASC_NODE": 87.6914, "ARG_OF_PERICENTER": 309.5949, "MEAN_ANOMALY": 50.4713, "EPHEMERIS_TYPE": 0, "CLASSIFICATION_TYPE": "U", "NORAD_CAT_ID": 58661, "ELEMENT_SET_NO": 999, "REV_AT_EPOCH": 10728, "BSTAR": 0.00044046, "MEAN_MOTION_DOT": 0.00012244, "MEAN_MOTION_DDOT": 0}, "tle": {"line1": "1 58661U 23208B   25336.19371898  .00012244  00000+0  44046-3 0  9999", "line2": "2 58661  97.4326  87.6914 0006533 309.5949  50.4713 15.28737613107281"}}, "geometry": {"type": "Point", "coordinates": [142.32621697149952, -80.88476251219276]}}]}